{"type": "FeatureCollection", "features": [ {"type": "Feature", "properties": {"norad_id": 66615, "name": "STARLINK-35988", "group": "last-30-days", "lat": -27.899786969961397, "lon": 73.61581820339867, "alt_km": 445.3587861186388, "timestamp": "2025-12-27T08:36:17.076090+00:00", "meta": {"OBJECT_NAME": "STARLINK-35988", "OBJECT_ID": "2025-270AD", "EPOCH": "2025-12-25T16:20:27.897216", "MEAN_MOTION": 15.40700329, "ECCENTRICITY": 0.00016951, "INCLINATION": 43.0013, "RA_OF_ASC_NODE": 117.9088, "ARG_OF_PERICENTER": 260.634, "MEAN_ANOMALY": 99.4325, "EPHEMERIS_TYPE": 0, "CLASSIFICATION_TYPE": "U", "NORAD_CAT_ID": 66615, "ELEMENT_SET_NO": 999, "REV_AT_EPOCH": 618, "BSTAR": 0.0010609961, "MEAN_MOTION_DOT": 0.00044275, "MEAN_MOTION_DDOT": 0}, "tle": {"line1": "1 66615U 25270AD  25359.68087844  .00044275  00000+0  10610-2 0  9990", "line2": "2 66615  43.0013 117.9088 0001695 260.6340  99.4325 15.40700329  6181"}}, "geometry": {"type": "Point", "coordinates": [73.61581820339867, -27.899786969961397]}}, {"type": "Feature", "properties": {"norad_id": 66616, "name": "STARLINK-35391", "group": "last-30-days", "lat": 34.30606509902076, "lon": 155.0729268197133, "alt_km": 438.80391445612895, "timestamp": "2025-12-27T08:36:17.076103+00:00", "meta": {"OBJECT_NAME": "STARLINK-35391", "OBJECT_ID": "2025-270AE", "EPOCH": "2025-12-27T00:35:05.078976", "MEAN_MOTION": 15.40721142, "ECCENTRICITY": 7.83e-05, "INCLINATION": 43.0003, "RA_OF_ASC_NODE": 109.9282, "ARG_OF_PERICENTER": 260.1391, "MEAN_ANOMALY": 99.9378, "EPHEMERIS_TYPE": 0, "CLASSIFICATION_TYPE": "U", "NORAD_CAT_ID": 66616, "ELEMENT_SET_NO": 999, "REV_AT_EPOCH": 666, "BSTAR": 0.0022574, "MEAN_MOTION_DOT": 0.00095244, "MEAN_MOTION_DDOT": 0}, "tle": {"line1": "1 66616U 25270AE  25361.02436434  .00095244  00000+0  22574-2 0  9999", "line2": "2 66616  43.0003 109.9282 0000783 260.1391  99.9378 15.40721142  6668"}}, "geometry": {"type": "Point", "coordinates": [155.0729268197133, 34.30606509902076]}}, {"type": "Feature", "properties": {"norad_id": 66617, "name": "STARLINK-35940", "group": "last-30-days", "lat": -41.97664264882646, "lon": -19.384489785693333, "alt_km": 452.36227097919345, "timestamp": "2025-12-27T08:36:17.076113+00:00", "meta": {"OBJECT_NAME": "STARLINK-35940", "OBJECT_ID": "2025-271A", "EPOCH": "2025-12-27T01:20:59.376192", "MEAN_MOTION": 15.39700977, "ECCENTRICITY": 0.000159, "INCLINATION": 53.1608, "RA_OF_ASC_NODE": 119.6271, "ARG_OF_PERICENTER": 73.786, "MEAN_ANOMALY": 286.332, "EPHEMERIS_TYPE": 0, "CLASSIFICATION_TYPE": "U", "NORAD_CAT_ID": 66617, "ELEMENT_SET_NO": 999, "REV_AT_EPOCH": 641, "BSTAR": 0.0017212, "MEAN_MOTION_DOT": 0.00069261, "MEAN_MOTION_DDOT": 0}, "tle": {"line1": "1 66617U 25271A   25361.05624278  .00069261  00000+0  17212-2 0  9992", "line2": "2 66617  53.1608 119.6271 0001590  73.7860 286.3320 15.39700977  6417"}}, "geometry": {"type": "Point", "coordinates": [-19.384489785693333, -41.97664264882646]}}, {"type": "Feature", "properties": {"norad_id": 66618, "name": "STARLINK-35970", "group": "last-30-days", "lat": -26.004969304392905, "lon": -41.021725553839026, "alt_km": 451.47652736638156, "timestamp": "2025-12-27T08:36:17.076124+00:00", "meta": {"OBJECT_NAME": "STARLINK-35970", "OBJECT_ID": "2025-271B", "EPOCH": "2025-12-27T04:00:01.998720", "MEAN_MOTION": 15.39566167, "ECCENTRICITY": 0.0001054, "INCLINATION": 53.16, "RA_OF_ASC_NODE": 118.4292, "ARG_OF_PERICENTER": 62.7724, "MEAN_ANOMALY": 166.4834, "EPHEMERIS_TYPE": 0, "CLASSIFICATION_TYPE": "U", "NORAD_CAT_ID": 66618, "ELEMENT_SET_NO": 999, "REV_AT_EPOCH": 602, "BSTAR": 0.0021724, "MEAN_MOTION_DOT": 0.0008734, "MEAN_MOTION_DDOT": 0}, "tle": {"line1": "1 66618U 25271B   25361.16668980  .00087340  00000+0  21724-2 0  9994", "line2": "2 66618  53.1600 118.4292 0001054  62.7724 166.4834 15.39566167  6028"}}, "geometry": {"type": "Point", "coordinates": [-41.021725553839026, -26.004969304392905]}}, {"type": "Feature", "properties": {"norad_id": 66619, "name": "STARLINK-35951", "group": "last-30-days", "lat": 49.40558415614803, "lon": -123.28679120719283, "alt_km": 440.2439164319694, "timestamp": "2025-12-27T08:36:17.076134+00:00", "meta": {"OBJECT_NAME": "STARLINK-35951", "OBJECT_ID": "2025-271C", "EPOCH": "2025-12-27T03:27:45.324576", "MEAN_MOTION": 15.39635356, "ECCENTRICITY": 4.21e-05, "INCLINATION": 53.1611, "RA_OF_ASC_NODE": 118.7499, "ARG_OF_PERICENTER": 73.5087, "MEAN_ANOMALY": 286.5964, "EPHEMERIS_TYPE": 0, "CLASSIFICATION_TYPE": "U", "NORAD_CAT_ID": 66619, "ELEMENT_SET_NO": 999, "REV_AT_EPOCH": 643, "BSTAR": 0.0015249, "MEAN_MOTION_DOT": 0.00061116, "MEAN_MOTION_DDOT": 0}, "tle": {"line1": "1 66619U 25271C   25361.14427459  .00061116  00000+0  15249-2 0  9995", "line2": "2 66619  53.1611 118.7499 0000421  73.5087 286.5964 15.39635356  6432"}}, "geometry": {"type": "Point", "coordinates": [-123.28679120719283, 49.40558415614803]}}, {"type": "Feature", "properties": {"norad_id": 66620, "name": "STARLINK-35936", "group": "last-30-days", "lat": 42.070400609138254, "lon": 160.43272975733228, "alt_km": 440.74589660816673, "timestamp": "2025-12-27T08:36:17.076144+00:00", "meta": {"OBJECT_NAME": "STARLINK-35936", "OBJECT_ID": "2025-271D", "EPOCH": "2025-12-26T15:13:18.983136", "MEAN_MOTION": 15.3962531, "ECCENTRICITY": 0.000119, "INCLINATION": 53.1591, "RA_OF_ASC_NODE": 121.2574, "ARG_OF_PERICENTER": 86.1076, "MEAN_ANOMALY": 274.0065, "EPHEMERIS_TYPE": 0, "CLASSIFICATION_TYPE": "U", "NORAD_CAT_ID": 66620, "ELEMENT_SET_NO": 999, "REV_AT_EPOCH": 635, "BSTAR": 0.0013256, "MEAN_MOTION_DOT": 0.00053002, "MEAN_MOTION_DDOT": 0}, "tle": {"line1": "1 66620U 25271D   25360.63424749  .00053002  00000+0  13256-2 0  9990", "line2": "2 66620  53.1591 121.2574 0001190  86.1076 274.0065 15.39625310  6350"}}, "geometry": {"type": "Point", "coordinates": [160.43272975733228, 42.070400609138254]}}, {"type": "Feature", "properties": {"norad_id": 66621, "name": "STARLINK-35847", "group": "last-30-days", "lat": -43.27939729507885, "lon": -17.61669803754468, "alt_km": 452.7831266570711, "timestamp": "2025-12-27T08:36:17.076155+00:00", "meta": {"OBJECT_NAME": "STARLINK-35847", "OBJECT_ID": "2025-271E", "EPOCH": "2025-12-27T04:00:01.998720", "MEAN_MOTION": 15.39553163, "ECCENTRICITY": 0.0001385, "INCLINATION": 53.1597, "RA_OF_ASC_NODE": 118.3774, "ARG_OF_PERICENTER": 61.8274, "MEAN_ANOMALY": 193.2078, "EPHEMERIS_TYPE": 0, "CLASSIFICATION_TYPE": "U", "NORAD_CAT_ID": 66621, "ELEMENT_SET_NO": 999, "REV_AT_EPOCH": 613, "BSTAR": 0.0023287, "MEAN_MOTION_DOT": 0.00093694, "MEAN_MOTION_DDOT": 0}, "tle": {"line1": "1 66621U 25271E   25361.16668980  .00093694  00000+0  23287-2 0  9993", "line2": "2 66621  53.1597 118.3774 0001385  61.8274 193.2078 15.39553163  6130"}}, "geometry": {"type": "Point", "coordinates": [-17.61669803754468, -43.27939729507885]}}, {"type": "Feature", "properties": {"norad_id": 66622, "name": "STARLINK-35950", "group": "last-30-days", "lat": -15.866212702159427, "lon": 105.69109656497743, "alt_km": 449.56763492797654, "timestamp": "2025-12-27T08:36:17.076167+00:00", "meta": {"OBJECT_NAME": "STARLINK-35950", "OBJECT_ID": "2025-271F", "EPOCH": "2025-12-26T13:59:50.932032", "MEAN_MOTION": 15.39717651, "ECCENTRICITY": 7.89e-05, "INCLINATION": 53.1597, "RA_OF_ASC_NODE": 121.6494, "ARG_OF_PERICENTER": 82.1022, "MEAN_ANOMALY": 278.0073, "EPHEMERIS_TYPE": 0, "CLASSIFICATION_TYPE": "U", "NORAD_CAT_ID": 66622, "ELEMENT_SET_NO": 999, "REV_AT_EPOCH": 634, "BSTAR": 0.0011765, "MEAN_MOTION_DOT": 0.00047103, "MEAN_MOTION_DDOT": 0}, "tle": {"line1": "1 66622U 25271F   25360.58322838  .00047103  00000+0  11765-2 0  9990", "line2": "2 66622  53.1597 121.6494 0000789  82.1022 278.0073 15.39717651  6345"}}, "geometry": {"type": "Point", "coordinates": [105.69109656497743, -15.866212702159427]}}, {"type": "Feature", "properties": {"norad_id": 66623, "name": "STARLINK-35920", "group": "last-30-days", "lat": -49.477717430372, "lon": 56.80223605383391, "alt_km": 451.90128275640564, "timestamp": "2025-12-27T08:36:17.076178+00:00", "meta": {"OBJECT_NAME": "STARLINK-35920", "OBJECT_ID": "2025-271G", "EPOCH": "2025-12-26T14:13:16.250016", "MEAN_MOTION": 15.3965013, "ECCENTRICITY": 4.27e-05, "INCLINATION": 53.1606, "RA_OF_ASC_NODE": 121.7067, "ARG_OF_PERICENTER": 62.266, "MEAN_ANOMALY": 297.8388, "EPHEMERIS_TYPE": 0, "CLASSIFICATION_TYPE": "U", "NORAD_CAT_ID": 66623, "ELEMENT_SET_NO": 999, "REV_AT_EPOCH": 634, "BSTAR": 0.00099486, "MEAN_MOTION_DOT": 0.00039641, "MEAN_MOTION_DDOT": 0}, "tle": {"line1": "1 66623U 25271G   25360.59254919  .00039641  00000+0  99486-3 0  9991", "line2": "2 66623  53.1606 121.7067 0000427  62.2660 297.8388 15.39650130  6346"}}, "geometry": {"type": "Point", "coordinates": [56.80223605383391, -49.477717430372]}}, {"type": "Feature", "properties": {"norad_id": 66624, "name": "STARLINK-35927", "group": "last-30-days", "lat": 35.04611602349232, "lon": -94.03631032806584, "alt_km": 442.5713145753998, "timestamp": "2025-12-27T08:36:17.076188+00:00", "meta": {"OBJECT_NAME": "STARLINK-35927", "OBJECT_ID": "2025-271H", "EPOCH": "2025-12-26T22:00:01.999584", "MEAN_MOTION": 15.39592147, "ECCENTRICITY": 6.461e-05, "INCLINATION": 53.1597, "RA_OF_ASC_NODE": 119.7725, "ARG_OF_PERICENTER": 74.2022, "MEAN_ANOMALY": 129.5449, "EPHEMERIS_TYPE": 0, "CLASSIFICATION_TYPE": "U", "NORAD_CAT_ID": 66624, "ELEMENT_SET_NO": 999, "REV_AT_EPOCH": 608, "BSTAR": 0.00057123457, "MEAN_MOTION_DOT": 0.00022496, "MEAN_MOTION_DDOT": 0}, "tle": {"line1": "1 66624U 25271H   25360.91668981  .00022496  00000+0  57123-3 0  9998", "line2": "2 66624  53.1597 119.7725 0000646  74.2022 129.5449 15.39592147  6085"}}, "geometry": {"type": "Point", "coordinates": [-94.03631032806584, 35.04611602349232]}}]}